STARLINK-11223 [DTC]    
1 60307C 24133G   26201.63451389 -.00002531  00000+0 -20828-4 0  2011
2 60307  53.1575 210.6711 0001484  69.6758  53.1661 15.69733729    15
STARLINK-11192 [DTC]    
1 60308C 24133H   26201.66993056 -.00077421  00000+0 -63585-3 0  2013
2 60308  53.1576 210.5536 0001236  78.4873 216.9005 15.69819480    12
STARLINK-11213 [DTC]    
1 60309C 24133J   26201.62479167 -.00003263  00000+0 -26882-4 0  2015
2 60309  53.1570 210.6622 0001228  87.9778   7.6625 15.69708211    16
STARLINK-11200 [DTC]    
1 60310C 24133K   26201.60673611  .00005858  00000+0  48241-4 0  2018
2 60310  53.1567 210.6942 0001238  78.4970 302.7872 15.69713595    13
STARLINK-11206 [DTC]    
1 60312C 24133M   26201.60812500  .00013062  00000+0  10769-3 0  2011
2 60312  53.1571 211.3071 0001019  98.6733 345.4051 15.69681922    10
STARLINK-11205 [DTC]    
1 60313C 24133N   26201.65118056 -.00021293  00000+0 -17538-3 0  2010
2 60313  53.1574 211.0376 0001241  79.1862 276.0368 15.69722145    16
STARLINK-32191          
1 60314C 24133P   26201.63590278 -.00005960  00000+0 -17603-3 0  2015
2 60314  53.1613  39.2520 0001611  96.6459  96.3992 15.34403168    18
STARLINK-32194          
1 60315C 24133Q   26201.65118056 -.00033583  00000+0 -99112-3 0  2015
2 60315  53.1601  38.6162 0001247  92.4477 115.7916 15.34442528    15
STARLINK-32192          
1 60316C 24133R   26201.65673611 -.00023695  00000+0 -69989-3 0  2011
2 60316  53.1609  38.4965 0001228  89.8244 195.5996 15.34410806    12
STARLINK-32189          
1 60317C 24133S   26201.61229167  .00005497  00000+0  16229-3 0  2018
2 60317  53.1598  38.8874 0001211  93.5448 213.2131 15.34410467    15
STARLINK-32190          
1 60318C 24133T   26201.64701389 -.00011287  00000+0 -33331-3 0  2012
2 60318  53.1603  39.0639 0001098 102.2147 222.0275 15.34413187    11
STARLINK-32182          
1 60319C 24133U   26201.61993056 -.00000065  00000+0 -19208-5 0  2015
2 60319  53.1614  38.8316 0001246  94.3869 266.2128 15.34412753    15
STARLINK-32199          
1 60320C 24133V   26201.63312500 -.00008559  00000+0 -25269-3 0  2016
2 60320  53.1600  38.9246 0001139 105.1239 247.0209 15.34416391    17
STARLINK-32198          
1 60321C 24133W   26201.61715278 -.00000539  00000+0 -15928-4 0  2016
2 60321  53.1602  38.7045 0001360  88.5649 326.4563 15.34399137    13
STARLINK-31745          
1 60329C 24136A   26201.63520833 -.00025576  00000+0 -82238-3 0  2015
2 60329  53.1581 177.5403 0001205  90.6009  57.5549 15.31718044    14
STARLINK-32153          
1 60330C 24136B   26201.64215278 -.00022258  00000+0 -75033-3 0  2011
2 60330  53.1564 178.4223 0001309  90.8356 350.5527 15.30195643    14
STARLINK-32203          
1 60331C 24136C   26201.64145833 -.00006569  00000+0 -19410-3 0  2015
2 60331  53.1578 166.5572 0001383  93.5721 241.6282 15.34389746    14
STARLINK-32171          
1 60332C 24136D   26201.61784722 -.00027662  00000+0 -88967-3 0  2019
2 60332  53.1587 177.5269 0001355  89.1853  14.7127 15.31710533    12
STARLINK-32133          
1 60333C 24136E   26201.58590278 -.00032212  00000+0 -10858-2 0  2017
2 60333  53.1568 178.6146 0001191  83.5374  82.7082 15.30204295    19
STARLINK-32132          
1 60334C 24136F   26201.66923611 -.00013558  00000+0 -45704-3 0  2019
2 60334  53.1577 178.1571 0001147  92.2771 208.1897 15.30192049    17
STARLINK-32168          
1 60335C 24136G   26201.60256944 -.00034274  00000+0 -11558-2 0  2019
2 60335  53.1581 178.4317 0001417  92.8689 217.6453 15.30189945    12
STARLINK-32079          
1 60336C 24136H   26201.64979167 -.00022938  00000+0 -77318-3 0  2014
2 60336  53.1586 178.1780 0001305  86.4503 141.7282 15.30198919    17
STARLINK-32078          
1 60338C 24136K   26201.66437500 -.00014169  00000+0 -47757-3 0  2019
2 60338  53.1587 178.0638 0001356  87.2340 244.5979 15.30196788    12
STARLINK-32175          
1 60339C 24136L   26201.61368056 -.00028803  00000+0 -97084-3 0  2012
2 60339  53.1588 178.2764 0001420  88.4514 335.5961 15.30203091    12
STARLINK-32176          
1 60340C 24136M   26201.63520833 -.00027657  00000+0 -93217-3 0  2019
2 60340  53.1592 178.1405 0001348  84.6551 115.4984 15.30203831    10
STARLINK-32185          
1 60341C 24136N   26201.61784722 -.00029422  00000+0 -99165-3 0  2017
2 60341  53.1591 178.1401 0001504  82.0474  63.1318 15.30204997    10
STARLINK-32221          
1 60342C 24136P   26201.60465278 -.00029971  00000+0 -10103-2 0  2012
2 60342  53.1597 178.2349 0001415  74.0148 340.9916 15.30202400    16
STARLINK-32083          
1 60343C 24136Q   26201.60187500 -.00031125  00000+0 -10487-2 0  2011
2 60343  53.1600 178.2252 0001764  73.8375 320.0029 15.30215078    10
STARLINK-32077          
1 60344C 24136R   26201.66229167 -.00012451  00000+0 -41968-3 0  2014
2 60344  53.1588 177.8990 0001235  83.5802 324.0162 15.30195702    19
STARLINK-32075          
1 60345C 24136S   26201.64423611 -.00023019  00000+0 -77585-3 0  2019
2 60345  53.1582 177.9358 0001475  81.9923 249.3549 15.30201740    13
STARLINK-32082          
1 60346C 24136T   26201.64979167 -.00020395  00000+0 -68741-3 0  2010
2 60346  53.1584 177.9222 0001449  81.8008 274.3470 15.30200693    17
STARLINK-32084          
1 60347C 24136U   26201.64006944 -.00026024  00000+0 -83695-3 0  2015
2 60347  53.1589 177.3573 0001366  86.4500 165.8180 15.31711416    15
STARLINK-32081          
1 60348C 24136V   26201.63451389 -.00028041  00000+0 -90185-3 0  2015
2 60348  53.1576 177.2321 0001355  86.1961 212.6801 15.31711172    18
STARLINK-32181          
1 60349C 24136W   26201.61854167 -.00026254  00000+0 -77578-3 0  2010
2 60349  53.1579 175.3385 0001350  90.1677  39.2017 15.34399545    16
STARLINK-32076          
1 60350C 24136X   26201.64284722 -.00020539  00000+0 -66057-3 0  2019
2 60350  53.1573 177.1417 0001418  83.8097 286.7964 15.31707716    18
STARLINK-32097          
1 60351C 24136Y   26201.66298611 -.00006064  00000+0 -17919-3 0  2014
2 60351  53.1581 175.1068 0001455  78.7536 307.8895 15.34387893    11
STARLINK-32285          
1 60355C 24138A   26201.62062500  .00015123  00000+0  44656-3 0  2014
2 60355  53.1595  50.7665 0001362  91.2237 121.9298 15.34399493    17
STARLINK-32278          
1 60356C 24138B   26201.63034722  .00011600  00000+0  39072-3 0  2013
2 60356  53.1578  52.4385 0001206 101.5053   6.5129 15.30205912    14
STARLINK-32287          
1 60358C 24138D   26201.61229167  .00021586  00000+0  72709-3 0  2010
2 60358  53.1577  52.4989 0001136 101.9637 283.9748 15.30200990    18
STARLINK-32290          
1 60359C 24138E   26201.65534722  .00001825  00000+0  61472-4 0  2011
2 60359  53.1577  52.3214 0001190  99.0683 152.5518 15.30217083    14
STARLINK-32275          
1 60360C 24138F   26201.64006944  .00001775  00000+0  57045-4 0  2017
2 60360  53.1587  51.1762 0001310  92.9556 330.4261 15.31722437    14
STARLINK-32227          
1 60361C 24138G   26201.60326389  .00025615  00000+0  86292-3 0  2016
2 60361  53.1579  52.4811 0001186 100.8160 258.6312 15.30193316    11
STARLINK-32256          
1 60362C 24138H   26201.65326389  .00002971  00000+0  10006-3 0  2012
2 60362  53.1577  52.3084 0001211 101.1649 144.7978 15.30213638    19
STARLINK-32267          
1 60363C 24138J   26201.66437500 -.00004905  00000+0 -16518-3 0  2017
2 60363  53.1586  52.1493 0001341  90.4368 274.8995 15.30220161    17
STARLINK-32270          
1 60364C 24138K   26201.63868056  .00008688  00000+0  27925-3 0  2013
2 60364  53.1583  51.6994 0001248 105.9072  50.4796 15.31712369    19
STARLINK-32188          
1 60365C 24138L   26201.65465278 -.00000831  00000+0 -26700-4 0  2010
2 60365  53.1597  51.3664 0001217  87.2552 285.9945 15.31714434    13
STARLINK-32230          
1 60366C 24138M   26201.62965278  .00010916  00000+0  36813-3 0  2011
2 60366  53.1588  52.2892 0001450  78.4950 107.1706 15.30166563    13
STARLINK-32243          
1 60367C 24138N   26201.62756944  .00012643  00000+0  40647-3 0  2019
2 60367  53.1586  51.6422 0001192  93.3103  53.2715 15.31702718    13
STARLINK-32271          
1 60368C 24138P   26201.66090278 -.00001919  00000+0 -64648-4 0  2019
2 60368  53.1579  52.2476 0001117 102.6083 202.8873 15.30208372    13
STARLINK-32220          
1 60370C 24138R   26201.63659722  .00008187  00000+0  27581-3 0  2010
2 60370  53.1596  52.2079 0001327  91.3098 155.8384 15.30199858    19
STARLINK-32263          
1 60371C 24138S   26201.60326389  .00022198  00000+0  74774-3 0  2012
2 60371  53.1581  51.9295 0001345 104.1906 180.2656 15.30198778    15
STARLINK-32268          
1 60372C 24138T   26201.65951389 -.00000302  00000+0 -10163-4 0  2010
2 60372  53.1579  52.2651 0000892  91.5777 200.4289 15.30215405    18
STARLINK-32223          
1 60373C 24138U   26201.62479167  .00012886  00000+0  41420-3 0  2014
2 60373  53.1590  51.6081 0001224  96.0394  60.9623 15.31710386    17
STARLINK-32180          
1 60374C 24138V   26201.63312500  .00009369  00000+0  30111-3 0  2010
2 60374  53.1601  51.4140 0001511  85.3089 194.9245 15.31715651    14
STARLINK-32281          
1 60375C 24138W   26201.60534722  .00024556  00000+0  72509-3 0  2012
2 60375  53.1590  51.2014 0001255 101.5140 201.1615 15.34397340    10
STARLINK-32277          
1 60376C 24138X   26201.61923611  .00014990  00000+0  50495-3 0  2014
2 60376  53.1590  52.3217 0001373  94.4822  39.5298 15.30201707    13
STARLINK-32269          
1 60377C 24138Y   26201.64215278  .00007509  00000+0  24152-3 0  2010
2 60377  53.1582  51.6227 0001246 108.3070  92.9294 15.31690984    16
STARLINK-11228 [DTC]    
1 60398C 24141A   26201.64493056 -.00022012  00000+0 -18138-3 0  2014
2 60398  53.1564 150.8568 0001066  98.2313 304.9004 15.69713519    12
STARLINK-11182 [DTC]    
1 60399C 24141B   26201.65256944 -.00048878  00000+0 -40274-3 0  2013
2 60399  53.1566 150.6491 0001066  92.0005  77.5334 15.69726591    11
